[{"OBJECT_NAME":"STARLINK-31792","OBJECT_ID":"2024-118V","EPOCH":"2026-03-09T06:15:31.253760","MEAN_MOTION":15.30184207,"ECCENTRICITY":0.00011861,"INCLINATION":53.1621,"RA_OF_ASC_NODE":26.3239,"ARG_OF_PERICENTER":132.0273,"MEAN_ANOMALY":228.0828,"EPHEMERIS_TYPE":0,"CLASSIFICATION_TYPE":"U","NORAD_CAT_ID":60132,"ELEMENT_SET_NO":999,"REV_AT_EPOCH":9566,"BSTAR":-5.1265367e-5,"MEAN_MOTION_DOT":-1.876e-5,"MEAN_MOTION_DDOT":0},{"OBJECT_NAME":"KUIPER-00226","OBJECT_ID":"2026-030X","EPOCH":"2026-03-09T15:01:51.726432","MEAN_MOTION":15.30655594,"ECCENTRICITY":0.0017713,"INCLINATION":51.8814,"RA_OF_ASC_NODE":220.1252,"ARG_OF_PERICENTER":64.2781,"MEAN_ANOMALY":296.003,"EPHEMERIS_TYPE":0,"CLASSIFICATION_TYPE":"U","NORAD_CAT_ID":67785,"ELEMENT_SET_NO":999,"REV_AT_EPOCH":507,"BSTAR":0.001553,"MEAN_MOTION_DOT":0.00046834,"MEAN_MOTION_DDOT":0}]
